NORAD_CAT_ID,OBJECT_NAME,OBJECT_TYPE,EPOCH,MEAN_MOTION,ECCENTRICITY,INCLINATION,RA_OF_ASC_NODE,ARG_OF_PERICENTER,MEAN_ANOMALY,BSTAR,MEAN_MOTION_DOT,MEAN_MOTION_DDOT,TLE_LINE0,TLE_LINE1,TLE_LINE2,SEMIMAJOR_AXIS,PERIOD,APOGEE,PERIGEE,DECAYED
51134.0,STARLINK-3183,PAYLOAD,2022-12-04 02:34:35,15.08829631,0.0004481,53.2176,238.3386,35.7392,324.39,2.0218e-05,3.2e-07,0.0,0 STARLINK-3183,1 51134U 22005AG  22338.10735645  .00000032  00000-0  20218-4 0  9994,2 51134  53.2176 238.3386 0004481  35.7392 324.3900 15.08829631 50109,6917.9119999999975,95.438,542.877,536.677,0.0
51134.0,STARLINK-3183,PAYLOAD,2022-12-04 10:31:31,15.08832488,0.0004438,53.2176,236.8518,38.4499,321.6809,8.379299999999999e-05,1.044e-05,0.0,0 STARLINK-3183,1 51134U 22005AG  22338.43855474  .00001044  00000-0  83793-4 0  9994,2 51134  53.2176 236.8518 0004438  38.4499 321.6809 15.08832488 49042,6917.903,95.438,542.839,536.698,0.0
51134.0,STARLINK-3183,PAYLOAD,2022-12-05 02:25:21,15.08846502,0.0004406,53.2174,233.8777,39.3246,320.8066,0.00019354,2.793e-05,0.0,0 STARLINK-3183,1 51134U 22005AG  22339.10094352  .00002793  00000-0  19354-3 0  9992,2 51134  53.2174 233.8777 0004406  39.3246 320.8066 15.08846502 50252,6917.861,95.437,542.774,536.678,0.0
51134.0,STARLINK-3183,PAYLOAD,2022-12-05 10:22:16,15.08860639,0.0004325,53.2175,232.391,39.7566,320.3742,-0.0001123,-2.078e-05,0.0,0 STARLINK-3183,1 51134U 22005AG  22339.43214064 -.00002078  00000-0 -11230-3 0  9995,2 51134  53.2175 232.3910 0004325  39.7566 320.3742 15.08860639 49199,6917.816999999999,95.436,542.674,536.69,0.0
51134.0,STARLINK-3183,PAYLOAD,2022-12-05 16:43:49,15.08844565,0.0004409,53.2176,231.2016,40.1267,320.005,0.00021834,3.188e-05,0.0,0 STARLINK-3183,1 51134U 22005AG  22339.69710531  .00003188  00000-0  21834-3 0  9995,2 51134  53.2176 231.2016 0004409  40.1267 320.0050 15.08844565 50340,6917.866,95.437,542.7819999999998,536.681,0.0
51134.0,STARLINK-3183,PAYLOAD,2022-12-06 10:13:04,15.08843878,0.0004319,53.2168,227.9315,39.1533,320.9771,7.5892e-05,9.19e-06,0.0,0 STARLINK-3183,1 51134U 22005AG  22340.42574586  .00000919  00000-0  75892-4 0  9999,2 51134  53.2168 227.9315 0004319  39.1533 320.9771 15.08843878 49342,6917.869000000002,95.437,542.721,536.746,0.0
51134.0,STARLINK-3183,PAYLOAD,2022-12-06 19:45:23,15.08829232,0.0004377,53.2172,226.1468,43.4491,316.6845,-0.00021713,-3.743e-05,0.0,0 STARLINK-3183,1 51134U 22005AG  22340.82319411 -.00003743  00000-0 -21713-3 0  9999,2 51134  53.2172 226.1468 0004377  43.4491 316.6845 15.08829232 50515,6917.913000000001,95.438,542.806,536.75,0.0
51134.0,STARLINK-3183,PAYLOAD,2022-12-07 16:25:24,15.08838223,0.000425,53.2176,222.2816,40.1031,320.0275,-2.086e-07,-2.93e-06,0.0,0 STARLINK-3183,1 51134U 22005AG  22341.68431650 -.00000293  00000-0 -20860-6 0  9996,2 51134  53.2176 222.2816 0004250  40.1031 320.0275 15.08838223 50647,6917.886,95.438,542.691,536.811,0.0
51134.0,STARLINK-3183,PAYLOAD,2022-12-07 18:00:48,15.08837373,0.0004313,53.2169,221.9842,41.4079,318.724,-1.0478e-06,-3.06e-06,0.0,0 STARLINK-3183,1 51134U 22005AG  22341.75055608 -.00000306  00000-0 -10478-5 0  9997,2 51134  53.2169 221.9842 0004313  41.4079 318.7240 15.08837373 49548,6917.888000000001,95.438,542.737,536.77,0.0
51134.0,STARLINK-3183,PAYLOAD,2022-12-08 01:57:43,15.08845539,0.0004204,53.2171,220.4985,41.1319,318.999,0.00011699,1.574e-05,0.0,0 STARLINK-3183,1 51134U 22005AG  22342.08175093  .00001574  00000-0  11699-3 0  9995,2 51134  53.2171 220.4985 0004204  41.1319 318.9990 15.08845539 50703,6917.863,95.437,542.637,536.82,0.0
51134.0,STARLINK-3183,PAYLOAD,2022-12-09 03:23:53,15.08851461,0.0005962,53.2166,215.7432,38.6515,321.4903,0.00040335,6.14e-05,0.0,0 STARLINK-3183,1 51134U 22005AG  22343.14158707  .00006140  00000-0  40335-3 0  9999,2 51134  53.2166 215.7432 0005962  38.6515 321.4903 15.08851461 49759,6917.845,95.437,543.835,535.586,0.0
51134.0,STARLINK-3183,PAYLOAD,2022-12-09 19:17:46,15.088092199999998,0.000452,53.2172,212.7699,34.9184,325.2104,-0.00043234,-7.159e-05,0.0,0 STARLINK-3183,1 51134U 22005AG  22343.80400751 -.00007159  00000-0 -43234-3 0  9995,2 51134  53.2172 212.7699 0004520  34.9184 325.2104 15.08809220 50964,6917.974,95.44,542.966,536.7130000000002,0.0
51134.0,STARLINK-3183,PAYLOAD,2022-12-10 03:14:41,15.08817457,0.0004113,53.2161,211.2793,42.4571,317.6739,-0.00030593,-5.153e-05,0.0,0 STARLINK-3183,1 51134U 22005AG  22344.13520715 -.00005153  00000-0 -30593-3 0  9991,2 51134  53.2161 211.2793 0004113  42.4571 317.6739 15.08817457 49905,6917.949000000001,95.439,542.66,536.969,0.0
51134.0,STARLINK-3183,PAYLOAD,2022-12-10 17:33:09,15.088290099999998,0.000396,53.2164,208.6024,41.8741,318.2553,-1.2132e-05,-4.82e-06,0.0,0 STARLINK-3183,1 51134U 22005AG  22344.73136313 -.00000482  00000-0 -12132-4 0  9994,2 51134  53.2164 208.6024 0003960  41.8741 318.2553 15.08829010 51100,6917.9140000000025,95.438,542.518,537.039,0.0
51134.0,STARLINK-3183,PAYLOAD,2022-12-10 19:08:32,15.0883581,0.0004091,53.2162,208.3058,42.3794,317.7513,3.801e-05,3.16e-06,0.0,0 STARLINK-3183,1 51134U 22005AG  22344.79760148  .00000316  00000-0  38010-4 0  9996,2 51134  53.2162 208.3058 0004091  42.3794 317.7513 15.08835810 50005,6917.893,95.438,542.5880000000002,536.928,0.0
51134.0,STARLINK-3183,PAYLOAD,2022-12-11 01:30:05,15.08845399,0.0003912,53.2153,207.1166,40.7433,319.3851,0.0010949,0.00017184,0.0,0 STARLINK-3183,1 51134U 22005AG  22345.06256698  .00017184  00000-0  10949-2 0  9997,2 51134  53.2153 207.1166 0003912  40.7433 319.3851 15.08845399 51158,6917.864000000001,95.437,542.435,537.023,0.0
51134.0,STARLINK-3183,PAYLOAD,2022-12-11 20:34:42,15.08849646,0.0003897,53.2151,203.5479,42.7364,317.393,0.0002638,3.913e-05,0.0,0 STARLINK-3183,1 51134U 22005AG  22345.85744184  .00003913  00000-0  26380-3 0  9998,2 51134  53.2151 203.5479 0003897  42.7364 317.3930 15.08849646 51278,6917.851,95.437,542.4119999999998,537.02,0.0
51134.0,STARLINK-3183,PAYLOAD,2022-12-12 01:20:52,15.08841518,0.000415,53.2152,202.6566,39.9627,320.1670000000001,7.247799999999999e-06,-1.74e-06,0.0,0 STARLINK-3183,1 51134U 22005AG  22346.05616426 -.00000174  00000-0  72478-5 0  9996,2 51134  53.2152 202.6566 0004150  39.9627 320.1670 15.08841518 51306,6917.876,95.437,542.612,536.87,0.0
51134.0,STARLINK-3183,PAYLOAD,2022-12-12 17:14:45,15.08801148,0.0003684,53.215,199.6819,45.1427,314.9864,-0.00058743,-9.617e-05,0.0,0 STARLINK-3183,1 51134U 22005AG  22346.71858588 -.00009617  00000-0 -58743-3 0  9995,2 51134  53.2150 199.6819 0003684  45.1427 314.9864 15.08801148 51400,6917.999,95.44,542.413,537.316,0.0
51134.0,STARLINK-3183,PAYLOAD,2022-12-13 07:33:13,15.08838662,0.0003513,53.215,197.0052,42.5279,317.5984,0.00048608,7.456e-05,0.0,0 STARLINK-3183,1 51134U 22005AG  22347.31474458  .00007456  00000-0  48608-3 0  9998,2 51134  53.2150 197.0052 0003513  42.5279 317.5984 15.08838662 51490,6917.884,95.438,542.18,537.319,0.0
51134.0,STARLINK-3183,PAYLOAD,2022-12-13 13:54:46,15.08844589,0.0003267,53.216,195.8151,40.723,319.4006,0.0004221,6.437e-05,0.0,0 STARLINK-3183,1 51134U 22005AG  22347.57970112  .00006437  00000-0  42210-3 0  9995,2 51134  53.2160 195.8151 0003267  40.7230 319.4006 15.08844589 50423,6917.866,95.437,541.991,537.471,0.0
51134.0,STARLINK-3183,PAYLOAD,2022-12-13 23:27:04,15.08856461,0.0003572,53.216,194.0329,40.4535,319.6723,0.00062666,9.704e-05,0.0,0 STARLINK-3183,1 51134U 22005AG  22347.97713670  .00009704  00000-0  62666-3 0  9990,2 51134  53.2160 194.0329 0003572  40.4535 319.6723 15.08856461 51594,6917.83,95.437,542.1659999999998,537.224,0.0
51134.0,STARLINK-3183,PAYLOAD,2022-12-14 12:10:09,15.08858124,0.0003529,53.2148,191.6526,42.6539,317.4727,0.00055474,8.556e-05,0.0,0 STARLINK-3183,1 51134U 22005AG  22348.50705301  .00008556  00000-0  55474-3 0  9995,2 51134  53.2148 191.6526 0003529  42.6539 317.4727 15.08858124 50566,6917.825,95.436,542.131,537.249,0.0
51134.0,STARLINK-3183,PAYLOAD,2022-12-14 20:07:04,15.08859484,0.0003457,53.2156,190.1664,40.5441,319.5808,0.00017189,2.45e-05,0.0,0 STARLINK-3183,1 51134U 22005AG  22348.83824652  .00002450  00000-0  17189-3 0  9990,2 51134  53.2156 190.1664 0003457  40.5441 319.5808 15.08859484 51723,6917.821,95.436,542.077,537.294,0.0
51134.0,STARLINK-3183,PAYLOAD,2022-12-15 13:36:18,15.08852797,0.0003517,53.2148,186.8948,45.8703,314.2578,-3.6915e-06,-3.48e-06,0.0,0 STARLINK-3183,1 51134U 22005AG  22349.56688355 -.00000348  00000-0 -36915-5 0  9995,2 51134  53.2148 186.8948 0003517  45.8703 314.2578 15.08852797 51835,6917.840999999999,95.437,542.139,537.273,0.0
51134.0,STARLINK-3183,PAYLOAD,2022-12-15 19:57:51,15.0885421,0.0003457,53.2155,185.7055,41.2647,318.8606,-4.398e-06,-3.59e-06,0.0,0 STARLINK-3183,1 51134U 22005AG  22349.83184166 -.00000359  00000-0 -43980-5 0  9998,2 51134  53.2155 185.7055 0003457  41.2647 318.8606 15.08854210 50765,6917.837,95.437,542.0930000000002,537.31,0.0
51134.0,STARLINK-3183,PAYLOAD,2022-12-16 13:27:05,15.08852009,0.0003461,53.2159,182.4348,42.0621,318.0637,9.6411e-05,1.246e-05,0.0,0 STARLINK-3183,1 51134U 22005AG  22350.56047724  .00001246  00000-0  96411-4 0  9998,2 51134  53.2159 182.4348 0003461  42.0621 318.0637 15.08852009 50876,6917.844,95.437,542.1030000000002,537.314,0.0
51134.0,STARLINK-3183,PAYLOAD,2022-12-16 18:13:14,15.08848104,0.0003476,53.216,181.5426,41.4995,318.626,3.9579e-05,3.41e-06,0.0,0 STARLINK-3183,1 51134U 22005AG  22350.75919823  .00000341  00000-0  39579-4 0  9994,2 51134  53.2160 181.5426 0003476  41.4995 318.6260 15.08848104 52015,6917.856,95.437,542.125,537.316,0.0
51134.0,STARLINK-3183,PAYLOAD,2022-12-16 19:48:37,15.08845597,0.0003473,53.216,181.2453,41.8474,318.2783,5.124e-06,-2.07e-06,0.0,0 STARLINK-3183,1 51134U 22005AG  22350.82543916 -.00000207  00000-0  51240-5 0  9990,2 51134  53.2160 181.2453 0003473  41.8474 318.2783 15.08845597 50911,6917.863,95.437,542.131,537.326,0.0
